{
  "norad_id": 43867,
  "name": "COSMOS 2533",
  "history": [
    {
      "epoch": "2026-03-27T06:00:38.429856Z",
      "apogee_km": 35789.253231502036,
      "perigee_km": 35783.35864237946,
      "latitude_deg": -0.015859364238710028,
      "longitude_deg": 69.99752763639886,
      "height_km": 35786.54350556932,
      "semi_major_axis_km": 42164.44293694075,
      "eccentricity": 6.99e-05,
      "inclination_deg": 0.0261,
      "raan_deg": 111.3491,
      "arg_perigee_deg": 338.2361,
      "mean_anomaly_deg": 255.246,
      "mean_motion_rev_day": 1.00272816
    }
  ]
}